FLOCK 4G-21             
1 62651U 25009AU  26068.19487675  .00013648  00000+0  49619-3 0  9998
2 62651  97.4032 151.1274 0000465 329.5782  30.5431 15.28381075 63677
STARLINK-34115          
1 63972U 25099W   26068.33295859  .00028011  00000+0  10236-2 0  9993
2 63972  43.0002 174.6067 0001780 253.7711 106.2945 15.27578809 47326
